GAOFEN-1                
1 39150U 13018A   25106.93785835  .00002538  00000+0  37042-3 0  9999
2 39150  97.9520 181.4778 0017627 195.7106 164.3559 14.76534010645346
VNREDSAT 1              
1 39160U 13021B   25106.94580437  .00002351  00000+0  44893-3 0  9991
2 39160  97.9537 170.3631 0001552  90.5641 269.5740 14.64831195637887
ARIRANG-5 (KOMPSAT-5)   
1 39227U 13042A   25106.91382767  .00006778  00000+0  48801-3 0  9991
2 39227  97.6215 294.5700 0004053 131.5385 228.6190 15.04514518639763
SKYSAT-A                
1 39418U 13066C   25106.73445638  .00005839  00000+0  36531-3 0  9990
2 39418  97.4392 164.0798 0022369 349.5186  10.5574 15.09581430624071
DUBAISAT-2              
1 39419U 13066D   25106.94227482  .00019024  00000+0  13103-2 0  9999
2 39419  97.4333 105.4116 0013728  59.3679 300.8900 15.05823380622156
GPM-CORE                
1 39574U 14009C   25106.90128249  .00028315  00000+0  60111-3 0  9991
2 39574  64.9770 296.0741 0009692 257.5280 102.4777 15.44897805631961
SENTINEL-1A             
1 39634U 14016A   25106.92193522  .00000642  00000+0  14588-3 0  9994
2 39634  98.1817 115.6310 0001387  90.2942 269.8417 14.59198241587857
KAZEOSAT 1              
1 39731U 14024A   25106.92091634  .00000908  00000+0  28987-3 0  9995
2 39731  98.3610 183.8945 0001243  92.0963 268.0369 14.42017713577125
ALOS-2                  
1 39766U 14029A   25106.91694067  .00008005  00000+0  10770-2 0  9992
2 39766  97.9196 205.1985 0001692  97.8867 262.2537 14.79491829588559
KAZEOSAT 2              
1 40010U 14033A   25106.85918393  .00001977  00000+0  24091-3 0  9998
2 40010  97.5807 323.2550 0007505 288.4719  71.5681 14.84434860585681
HODOYOSHI-4             
1 40011U 14033B   25106.91182960  .00005713  00000+0  64768-3 0  9996
2 40011  97.5568 307.6138 0022768 277.8439  82.0193 14.86545480585445
DEIMOS-2                
1 40013U 14033D   25106.93901478  .00008092  00000+0  80702-3 0  9992
2 40013  97.6406 350.4015 0001082  63.3034 296.8296 14.91805405574139
HODOYOSHI-3             
1 40015U 14033F   25106.89202110  .00006265  00000+0  75524-3 0  9992
2 40015  97.6070 283.5910 0032755 319.6839  40.1947 14.83786285584374
SPOT 7                  
1 40053U 14034A   25106.89330737  .00001889  00000+0  39991-3 0  9997
2 40053  98.1156 174.1228 0001606  99.5698 260.5684 14.60381734574901
