[
  {
    "OBJECT_NAME": "GAOFEN-1",
    "OBJECT_ID": "2013-018A",
    "EPOCH": "2025-04-16T22:30:30.961440",
    "MEAN_MOTION": 14.7653401,
    "ECCENTRICITY": 0.0017627,
    "INCLINATION": 97.952,
    "RA_OF_ASC_NODE": 181.4778,
    "ARG_OF_PERICENTER": 195.7106,
    "MEAN_ANOMALY": 164.3559,
    "EPHEMERIS_TYPE": 0,
    "CLASSIFICATION_TYPE": "U",
    "NORAD_CAT_ID": 39150,
    "ELEMENT_SET_NO": 999,
    "REV_AT_EPOCH": 64534,
    "BSTAR": 0.00037042,
    "MEAN_MOTION_DOT": 2.538e-5,
    "MEAN_MOTION_DDOT": 0
  },
  {
    "OBJECT_NAME": "VNREDSAT 1",
    "OBJECT_ID": "2013-021B",
    "EPOCH": "2025-04-16T22:41:57.497568",
    "MEAN_MOTION": 14.64831195,
    "ECCENTRICITY": 0.0001552,
    "INCLINATION": 97.9537,
    "RA_OF_ASC_NODE": 170.3631,
    "ARG_OF_PERICENTER": 90.5641,
    "MEAN_ANOMALY": 269.574,
    "EPHEMERIS_TYPE": 0,
    "CLASSIFICATION_TYPE": "U",
    "NORAD_CAT_ID": 39160,
    "ELEMENT_SET_NO": 999,
    "REV_AT_EPOCH": 63788,
    "BSTAR": 0.00044893,
    "MEAN_MOTION_DOT": 2.351e-5,
    "MEAN_MOTION_DDOT": 0
  },
  {
    "OBJECT_NAME": "ARIRANG-5 (KOMPSAT-5)",
    "OBJECT_ID": "2013-042A",
    "EPOCH": "2025-04-16T21:55:54.710688",
    "MEAN_MOTION": 15.04514518,
    "ECCENTRICITY": 0.0004053,
    "INCLINATION": 97.6215,
    "RA_OF_ASC_NODE": 294.57,
    "ARG_OF_PERICENTER": 131.5385,
    "MEAN_ANOMALY": 228.619,
    "EPHEMERIS_TYPE": 0,
    "CLASSIFICATION_TYPE": "U",
    "NORAD_CAT_ID": 39227,
    "ELEMENT_SET_NO": 999,
    "REV_AT_EPOCH": 63976,
    "BSTAR": 0.00048801,
    "MEAN_MOTION_DOT": 6.778e-5,
    "MEAN_MOTION_DDOT": 0
  },
  {
    "OBJECT_NAME": "SKYSAT-A",
    "OBJECT_ID": "2013-066C",
    "EPOCH": "2025-04-16T17:37:37.031232",
    "MEAN_MOTION": 15.0958143,
    "ECCENTRICITY": 0.0022369,
    "INCLINATION": 97.4392,
    "RA_OF_ASC_NODE": 164.0798,
    "ARG_OF_PERICENTER": 349.5186,
    "MEAN_ANOMALY": 10.5574,
    "EPHEMERIS_TYPE": 0,
    "CLASSIFICATION_TYPE": "U",
    "NORAD_CAT_ID": 39418,
    "ELEMENT_SET_NO": 999,
    "REV_AT_EPOCH": 62407,
    "BSTAR": 0.00036531,
    "MEAN_MOTION_DOT": 5.839e-5,
    "MEAN_MOTION_DDOT": 0
  },
  {
    "OBJECT_NAME": "DUBAISAT-2",
    "OBJECT_ID": "2013-066D",
    "EPOCH": "2025-04-16T22:36:52.544448",
    "MEAN_MOTION": 15.0582338,
    "ECCENTRICITY": 0.0013728,
    "INCLINATION": 97.4333,
    "RA_OF_ASC_NODE": 105.4116,
    "ARG_OF_PERICENTER": 59.3679,
    "MEAN_ANOMALY": 300.89,
    "EPHEMERIS_TYPE": 0,
    "CLASSIFICATION_TYPE": "U",
    "NORAD_CAT_ID": 39419,
    "ELEMENT_SET_NO": 999,
    "REV_AT_EPOCH": 62215,
    "BSTAR": 0.0013103,
    "MEAN_MOTION_DOT": 0.00019024,
    "MEAN_MOTION_DDOT": 0
  },
  {
    "OBJECT_NAME": "GPM-CORE",
    "OBJECT_ID": "2014-009C",
    "EPOCH": "2025-04-16T21:37:50.807136",
    "MEAN_MOTION": 15.44897805,
    "ECCENTRICITY": 0.0009692,
    "INCLINATION": 64.977,
    "RA_OF_ASC_NODE": 296.0741,
    "ARG_OF_PERICENTER": 257.528,
    "MEAN_ANOMALY": 102.4777,
    "EPHEMERIS_TYPE": 0,
    "CLASSIFICATION_TYPE": "U",
    "NORAD_CAT_ID": 39574,
    "ELEMENT_SET_NO": 999,
    "REV_AT_EPOCH": 63196,
    "BSTAR": 0.00060111,
    "MEAN_MOTION_DOT": 0.00028315,
    "MEAN_MOTION_DDOT": 0
  },
  {
    "OBJECT_NAME": "SENTINEL-1A",
    "OBJECT_ID": "2014-016A",
    "EPOCH": "2025-04-16T22:07:35.203008",
    "MEAN_MOTION": 14.59198241,
    "ECCENTRICITY": 0.0001387,
    "INCLINATION": 98.1817,
    "RA_OF_ASC_NODE": 115.631,
    "ARG_OF_PERICENTER": 90.2942,
    "MEAN_ANOMALY": 269.8417,
    "EPHEMERIS_TYPE": 0,
    "CLASSIFICATION_TYPE": "U",
    "NORAD_CAT_ID": 39634,
    "ELEMENT_SET_NO": 999,
    "REV_AT_EPOCH": 58785,
    "BSTAR": 0.00014588,
    "MEAN_MOTION_DOT": 6.42e-6,
    "MEAN_MOTION_DDOT": 0
  },
  {
    "OBJECT_NAME": "KAZEOSAT 1",
    "OBJECT_ID": "2014-024A",
    "EPOCH": "2025-04-16T22:06:07.171776",
    "MEAN_MOTION": 14.42017713,
    "ECCENTRICITY": 0.0001243,
    "INCLINATION": 98.361,
    "RA_OF_ASC_NODE": 183.8945,
    "ARG_OF_PERICENTER": 92.0963,
    "MEAN_ANOMALY": 268.0369,
    "EPHEMERIS_TYPE": 0,
    "CLASSIFICATION_TYPE": "U",
    "NORAD_CAT_ID": 39731,
    "ELEMENT_SET_NO": 999,
    "REV_AT_EPOCH": 57712,
    "BSTAR": 0.00028987,
    "MEAN_MOTION_DOT": 9.08e-6,
    "MEAN_MOTION_DDOT": 0
  },
  {
    "OBJECT_NAME": "ALOS-2",
    "OBJECT_ID": "2014-029A",
    "EPOCH": "2025-04-16T22:00:23.673888",
    "MEAN_MOTION": 14.79491829,
    "ECCENTRICITY": 0.0001692,
    "INCLINATION": 97.9196,
    "RA_OF_ASC_NODE": 205.1985,
    "ARG_OF_PERICENTER": 97.8867,
    "MEAN_ANOMALY": 262.2537,
    "EPHEMERIS_TYPE": 0,
    "CLASSIFICATION_TYPE": "U",
    "NORAD_CAT_ID": 39766,
    "ELEMENT_SET_NO": 999,
    "REV_AT_EPOCH": 58855,
    "BSTAR": 0.001077,
    "MEAN_MOTION_DOT": 8.005e-5,
    "MEAN_MOTION_DDOT": 0
  },
  {
    "OBJECT_NAME": "KAZEOSAT 2",
    "OBJECT_ID": "2014-033A",
    "EPOCH": "2025-04-16T20:37:13.491552",
    "MEAN_MOTION": 14.8443486,
    "ECCENTRICITY": 0.0007505,
    "INCLINATION": 97.5807,
    "RA_OF_ASC_NODE": 323.255,
    "ARG_OF_PERICENTER": 288.4719,
    "MEAN_ANOMALY": 71.5681,
    "EPHEMERIS_TYPE": 0,
    "CLASSIFICATION_TYPE": "U",
    "NORAD_CAT_ID": 40010,
    "ELEMENT_SET_NO": 999,
    "REV_AT_EPOCH": 58568,
    "BSTAR": 0.00024091,
    "MEAN_MOTION_DOT": 1.977e-5,
    "MEAN_MOTION_DDOT": 0
  },
  {
    "OBJECT_NAME": "HODOYOSHI-4",
    "OBJECT_ID": "2014-033B",
    "EPOCH": "2025-04-16T21:53:02.077440",
    "MEAN_MOTION": 14.8654548,
    "ECCENTRICITY": 0.0022768,
    "INCLINATION": 97.5568,
    "RA_OF_ASC_NODE": 307.6138,
    "ARG_OF_PERICENTER": 277.8439,
    "MEAN_ANOMALY": 82.0193,
    "EPHEMERIS_TYPE": 0,
    "CLASSIFICATION_TYPE": "U",
    "NORAD_CAT_ID": 40011,
    "ELEMENT_SET_NO": 999,
    "REV_AT_EPOCH": 58544,
    "BSTAR": 0.00064768,
    "MEAN_MOTION_DOT": 5.713e-5,
    "MEAN_MOTION_DDOT": 0
  },
  {
    "OBJECT_NAME": "DEIMOS-2",
    "OBJECT_ID": "2014-033D",
    "EPOCH": "2025-04-16T22:32:10.876992",
    "MEAN_MOTION": 14.91805405,
    "ECCENTRICITY": 0.0001082,
    "INCLINATION": 97.6406,
    "RA_OF_ASC_NODE": 350.4015,
    "ARG_OF_PERICENTER": 63.3034,
    "MEAN_ANOMALY": 296.8296,
    "EPHEMERIS_TYPE": 0,
    "CLASSIFICATION_TYPE": "U",
    "NORAD_CAT_ID": 40013,
    "ELEMENT_SET_NO": 999,
    "REV_AT_EPOCH": 57413,
    "BSTAR": 0.00080702,
    "MEAN_MOTION_DOT": 8.092e-5,
    "MEAN_MOTION_DDOT": 0
  },
  {
    "OBJECT_NAME": "HODOYOSHI-3",
    "OBJECT_ID": "2014-033F",
    "EPOCH": "2025-04-16T21:24:30.623040",
    "MEAN_MOTION": 14.83786285,
    "ECCENTRICITY": 0.0032755,
    "INCLINATION": 97.607,
    "RA_OF_ASC_NODE": 283.591,
    "ARG_OF_PERICENTER": 319.6839,
    "MEAN_ANOMALY": 40.1947,
    "EPHEMERIS_TYPE": 0,
    "CLASSIFICATION_TYPE": "U",
    "NORAD_CAT_ID": 40015,
    "ELEMENT_SET_NO": 999,
    "REV_AT_EPOCH": 58437,
    "BSTAR": 0.00075524,
    "MEAN_MOTION_DOT": 6.265e-5,
    "MEAN_MOTION_DDOT": 0
  },
  {
    "OBJECT_NAME": "SPOT 7",
    "OBJECT_ID": "2014-034A",
    "EPOCH": "2025-04-16T21:26:21.756768",
    "MEAN_MOTION": 14.60381734,
    "ECCENTRICITY": 0.0001606,
    "INCLINATION": 98.1156,
    "RA_OF_ASC_NODE": 174.1228,
    "ARG_OF_PERICENTER": 99.5698,
    "MEAN_ANOMALY": 260.5684,
    "EPHEMERIS_TYPE": 0,
    "CLASSIFICATION_TYPE": "U",
    "NORAD_CAT_ID": 40053,
    "ELEMENT_SET_NO": 999,
    "REV_AT_EPOCH": 57490,
    "BSTAR": 0.00039991,
    "MEAN_MOTION_DOT": 1.889e-5,
    "MEAN_MOTION_DDOT": 0
  }
]
